{
  "type": "FeatureCollection",
  "features": [
    {
      "type": "Feature",
      "properties": {
        "norad_id": 19071,
        "name": "OSCAR 32",
        "group": "nnss",
        "lat": -31.38477182261431,
        "lon": 16.441789743597973,
        "alt_km": 1262.4599973926252,
        "timestamp": "2025-12-03T17:47:50.986338+00:00",
        "meta_object_name": "OSCAR 32",
        "meta_object_id": "1988-033B",
        "meta_epoch": "2025-12-03T08:58:34.375872",
        "meta_mean_motion": 13.2795205,
        "meta_eccentricity": 0.0187576,
        "meta_inclination": 90.3227,
        "meta_ra_of_asc_node": 16.2333,
        "meta_arg_of_pericenter": 192.8373,
        "meta_mean_anomaly": 178.2823,
        "meta_ephemeris_type": 0,
        "meta_classification_type": "U",
        "meta_norad_cat_id": 19071,
        "meta_element_set_no": 999,
        "meta_rev_at_epoch": 82141,
        "meta_bstar": 0.00018697,
        "meta_mean_motion_dot": 1.01e-06,
        "meta_mean_motion_ddot": 0,
        "tle_line1": "1 19071U 88033B   25337.37400898  .00000101  00000+0  18697-3 0  9994",
        "tle_line2": "2 19071  90.3227  16.2333 0187576 192.8373 178.2823 13.27952050821419"
      },
      "geometry": {
        "type": "Point",
        "coordinates": [
          16.441789743597973,
          -31.38477182261431
        ]
      }
    },
    {
      "type": "Feature",
      "properties": {
        "norad_id": 19223,
        "name": "NOVA 2",
        "group": "nnss",
        "lat": -33.666561403062815,
        "lon": 78.27507010509306,
        "alt_km": 1173.3841687191434,
        "timestamp": "2025-12-03T17:47:50.986348+00:00",
        "meta_object_name": "NOVA 2",
        "meta_object_id": "1988-052A",
        "meta_epoch": "2025-12-03T12:34:20.825760",
        "meta_mean_motion": 13.22934209,
        "meta_eccentricity": 0.0031322,
        "meta_inclination": 89.9873,
        "meta_ra_of_asc_node": 78.2838,
        "meta_arg_of_pericenter": 41.7206,
        "meta_mean_anomaly": 328.8002,
        "meta_ephemeris_type": 0,
        "meta_classification_type": "U",
        "meta_norad_cat_id": 19223,
        "meta_element_set_no": 999,
        "meta_rev_at_epoch": 80826,
        "meta_bstar": 0.00016222,
        "meta_mean_motion_dot": 7.7e-07,
        "meta_mean_motion_ddot": 0,
        "tle_line1": "1 19223U 88052A   25337.52385215  .00000077  00000+0  16222-3 0  9990",
        "tle_line2": "2 19223  89.9873  78.2838 0031322  41.7206 328.8002 13.22934209808262"
      },
      "geometry": {
        "type": "Point",
        "coordinates": [
          78.27507010509306,
          -33.666561403062815
        ]
      }
    },
    {
      "type": "Feature",
      "properties": {
        "norad_id": 19419,
        "name": "OSCAR 25",
        "group": "nnss",
        "lat": 54.421795533992295,
        "lon": -159.73572071539107,
        "alt_km": 1152.9970613678033,
        "timestamp": "2025-12-03T17:47:50.986359+00:00",
        "meta_object_name": "OSCAR 25",
        "meta_object_id": "1988-074A",
        "meta_epoch": "2025-12-03T10:04:04.397376",
        "meta_mean_motion": 13.42620515,
        "meta_eccentricity": 0.009422,
        "meta_inclination": 90.0357,
        "meta_ra_of_asc_node": 20.2132,
        "meta_arg_of_pericenter": 272.9244,
        "meta_mean_anomaly": 97.422,
        "meta_ephemeris_type": 0,
        "meta_classification_type": "U",
        "meta_norad_cat_id": 19419,
        "meta_element_set_no": 999,
        "meta_rev_at_epoch": 82515,
        "meta_bstar": 0.0002535,
        "meta_mean_motion_dot": 1.55e-06,
        "meta_mean_motion_ddot": 0,
        "tle_line1": "1 19419U 88074A   25337.41949534  .00000155  00000+0  25350-3 0  9998",
        "tle_line2": "2 19419  90.0357  20.2132 0094220 272.9244  97.4220 13.42620515825151"
      },
      "geometry": {
        "type": "Point",
        "coordinates": [
          -159.73572071539107,
          54.421795533992295
        ]
      }
    },
    {
      "type": "Feature",
      "properties": {
        "norad_id": 19420,
        "name": "OSCAR 31",
        "group": "nnss",
        "lat": 12.044819951590338,
        "lon": 20.55485911500844,
        "alt_km": 1119.4250280148299,
        "timestamp": "2025-12-03T17:47:50.986368+00:00",
        "meta_object_name": "OSCAR 31",
        "meta_object_id": "1988-074B",
        "meta_epoch": "2025-12-03T03:31:40.916640",
        "meta_mean_motion": 13.42582141,
        "meta_eccentricity": 0.00924436,
        "meta_inclination": 90.0372,
        "meta_ra_of_asc_node": 20.5606,
        "meta_arg_of_pericenter": 267.8245,
        "meta_mean_anomaly": 111.3176,
        "meta_ephemeris_type": 0,
        "meta_classification_type": "U",
        "meta_norad_cat_id": 19420,
        "meta_element_set_no": 999,
        "meta_rev_at_epoch": 82522,
        "meta_bstar": 0.00019647534,
        "meta_mean_motion_dot": 1.22e-06,
        "meta_mean_motion_ddot": 0,
        "tle_line1": "1 19420U 88074B   25337.14700135  .00000122  00000+0  19648-3 0  9999",
        "tle_line2": "2 19420  90.0372  20.5606 0092443 267.8245 111.3176 13.42582141825224"
      },
      "geometry": {
        "type": "Point",
        "coordinates": [
          20.55485911500844,
          12.044819951590338
        ]
      }
    }
  ]
}